[{"OBJECT_NAME":"FLOCK 4G-29","OBJECT_ID":"2025-009AK","EPOCH":"2026-03-09T19:33:04.927968","MEAN_MOTION":15.27382318,"ECCENTRICITY":0.00013664,"INCLINATION":97.4058,"RA_OF_ASC_NODE":151.3683,"ARG_OF_PERICENTER":288.0502,"MEAN_ANOMALY":72.0588,"EPHEMERIS_TYPE":0,"CLASSIFICATION_TYPE":"U","NORAD_CAT_ID":62642,"ELEMENT_SET_NO":999,"REV_AT_EPOCH":6372,"BSTAR":0.0004183135,"MEAN_MOTION_DOT":0.00011147,"MEAN_MOTION_DDOT":0},{"OBJECT_NAME":"STARLINK-35610","OBJECT_ID":"2025-259G","EPOCH":"2026-03-09T23:02:24.642816","MEAN_MOTION":15.27587366,"ECCENTRICITY":0.00023956,"INCLINATION":43.0029,"RA_OF_ASC_NODE":272.7341,"ARG_OF_PERICENTER":274.9006,"MEAN_ANOMALY":85.1572,"EPHEMERIS_TYPE":0,"CLASSIFICATION_TYPE":"U","NORAD_CAT_ID":66428,"ELEMENT_SET_NO":999,"REV_AT_EPOCH":1953,"BSTAR":0.0010125274,"MEAN_MOTION_DOT":0.00027712,"MEAN_MOTION_DDOT":0}]
